NORAD_CAT_ID,OBJECT_NAME,OBJECT_TYPE,EPOCH,MEAN_MOTION,ECCENTRICITY,INCLINATION,RA_OF_ASC_NODE,ARG_OF_PERICENTER,MEAN_ANOMALY,BSTAR,MEAN_MOTION_DOT,MEAN_MOTION_DDOT,TLE_LINE0,TLE_LINE1,TLE_LINE2,SEMIMAJOR_AXIS,PERIOD,APOGEE,PERIGEE,DECAYED
52991.0,STARLINK-4285,PAYLOAD,2024-07-19 22:09:36,15.08848897,0.0001419,53.2165,267.6003,88.4802,271.6353,0.00019103,2.754e-05,0.0,0 STARLINK-4285,1 52991U 22076F   24201.92334095  .00002754  00000-0  19103-3 0  9992,2 52991  53.2165 267.6003 0001419  88.4802 271.6353 15.08848897112468,6917.853,95.437,540.7,538.737,0.0
52991.0,STARLINK-4285,PAYLOAD,2024-07-20 04:31:09,15.08837968,0.0001492,53.2176,266.4103,107.218,252.8975,0.00024362,3.591e-05,0.0,0 STARLINK-4285,1 52991U 22076F   24202.18830660  .00003591  00000-0  24362-3 0  9993,2 52991  53.2176 266.4103 0001492 107.2180 252.8975 15.08837968112972,6917.887,95.438,540.784,538.719,0.0
52991.0,STARLINK-4285,PAYLOAD,2024-07-20 10:52:42,15.08836853,0.0001321,53.2154,265.2224,92.2627,267.8517,0.00010319,1.355e-05,0.0,0 STARLINK-4285,1 52991U 22076F   24202.45326763  .00001355  00000-0  10319-3 0  9990,2 52991  53.2154 265.2224 0001321  92.2627 267.8517 15.08836853112542,6917.89,95.438,540.669,538.841,0.0
52991.0,STARLINK-4285,PAYLOAD,2024-07-21 10:43:29,15.08842112,0.0001441,53.2158,260.7624,97.8058,262.3098,0.00011493,1.542e-05,0.0,0 STARLINK-4285,1 52991U 22076F   24203.44686383  .00001542  00000-0  11493-3 0  9999,2 52991  53.2158 260.7624 0001441  97.8058 262.3098 15.08842112113160,6917.874,95.437,540.736,538.742,0.0
52991.0,STARLINK-4285,PAYLOAD,2024-07-22 08:58:53,15.08832843,0.0001461,53.2155,256.5991,99.3341,260.7817,1.9933e-05,2.9e-07,0.0,0 STARLINK-4285,1 52991U 22076F   24204.37422931  .00000029  00000-0  19933-4 0  9996,2 52991  53.2155 256.5991 0001461  99.3341 260.7817 15.08832843113308,6917.902,95.438,540.778,538.757,0.0
52991.0,STARLINK-4285,PAYLOAD,2024-07-23 10:25:03,15.08841608,0.0001401,53.2157,251.8409,92.9775,267.1378,0.00012059,1.632e-05,0.0,0 STARLINK-4285,1 52991U 22076F   24205.43406703  .00001632  00000-0  12059-3 0  9995,2 52991  53.2157 251.8409 0001401  92.9775 267.1378 15.08841608113465,6917.875,95.437,540.71,538.771,0.0
52991.0,STARLINK-4285,PAYLOAD,2024-07-24 11:51:14,15.08831208,0.0001373,53.2154,247.0839,93.1284,266.9865,8.7927e-05,1.111e-05,0.0,0 STARLINK-4285,1 52991U 22076F   24206.49391825  .00001111  00000-0  87927-4 0  9999,2 52991  53.2154 247.0839 0001373  93.1284 266.9865 15.08831208113623,6917.907,95.438,540.722,538.822,0.0
52991.0,STARLINK-4285,PAYLOAD,2024-07-25 06:55:51,15.08842485,0.0001327,53.215,243.5157,92.242,267.8724,0.00011905,1.607e-05,0.0,0 STARLINK-4285,1 52991U 22076F   24207.28879137  .00001607  00000-0  11905-3 0  9996,2 52991  53.2150 243.5157 0001327  92.2420 267.8724 15.08842485113278,6917.873,95.437,540.656,538.82,0.0
52991.0,STARLINK-4285,PAYLOAD,2024-07-25 10:06:37,15.08845062,0.0001372,53.2153,242.9213,93.3614,266.7535,0.00013952,1.934e-05,0.0,0 STARLINK-4285,1 52991U 22076F   24207.42126943  .00001934  00000-0  13952-3 0  9999,2 52991  53.2153 242.9213 0001372  93.3614 266.7535 15.08845062113760,6917.865,95.437,540.679,538.781,0.0
52991.0,STARLINK-4285,PAYLOAD,2024-07-26 08:22:01,15.08843221,0.0001317,53.2153,238.7544,102.4931,257.6208,0.0001717,2.446e-05,0.0,0 STARLINK-4285,1 52991U 22076F   24208.34862776  .00002446  00000-0  17170-3 0  9997,2 52991  53.2153 238.7544 0001317 102.4931 257.6208 15.08843221113438,6917.871,95.437,540.647,538.824,0.0
52991.0,STARLINK-4285,PAYLOAD,2024-07-26 19:29:43,15.0884536,0.0001314,53.2151,236.6728,100.9499,259.1641,0.00015349,2.156e-05,0.0,0 STARLINK-4285,1 52991U 22076F   24208.81230593  .00002156  00000-0  15349-3 0  9999,2 52991  53.2151 236.6728 0001314 100.9499 259.1641 15.08845360113979,6917.864,95.437,540.638,538.82,0.0
52991.0,STARLINK-4285,PAYLOAD,2024-07-27 06:37:25,15.08840705,0.0001745,53.2173,234.5923,84.7883,275.3309,8.7903e-06,-1.48e-06,0.0,0 STARLINK-4285,1 52991U 22076F   24209.27599308 -.00000148  00000-0  87903-5 0  9999,2 52991  53.2173 234.5923 0001745  84.7883 275.3309 15.08840705114049,6917.878,95.438,540.95,538.536,0.0
52991.0,STARLINK-4285,PAYLOAD,2024-07-27 11:23:35,15.08841706,0.0001709,53.2175,233.7002,101.7842,258.3342,-1.8485e-06,-3.18e-06,0.0,0 STARLINK-4285,1 52991U 22076F   24209.47471116 -.00000318  00000-0 -18485-5 0  9996,2 52991  53.2175 233.7002 0001709 101.7842 258.3342 15.08841706113606,6917.875,95.437,540.922,538.558,0.0
52991.0,STARLINK-4285,PAYLOAD,2024-07-28 04:52:50,15.08807644,0.0001314,53.2155,230.4274,118.9225,241.1899,0.00054227,8.345e-05,0.0,0 STARLINK-4285,1 52991U 22076F   24210.20335971  .00008345  00000-0  54227-3 0  9995,2 52991  53.2155 230.4274 0001314 118.9225 241.1899 15.08807644114180,6917.979,95.44,540.753,538.935,0.0
52991.0,STARLINK-4285,PAYLOAD,2024-07-28 11:14:21,15.08841208,0.0001504,53.2158,229.2384,111.2467,248.8686,2.8724e-05,1.69e-06,0.0,0 STARLINK-4285,1 52991U 22076F   24210.46830768  .00000169  00000-0  28724-4 0  9997,2 52991  53.2158 229.2384 0001504 111.2467 248.8686 15.08841208114223,6917.877,95.437,540.782,538.701,0.0
52991.0,STARLINK-4285,PAYLOAD,2024-07-29 11:05:09,15.0883846,0.0001342,53.2151,224.7785,87.1564,272.9582,6.5713e-05,7.58e-06,0.0,0 STARLINK-4285,1 52991U 22076F   24211.46191094  .00000758  00000-0  65713-4 0  9993,2 52991  53.2151 224.7785 0001342  87.1564 272.9582 15.08838460113903,6917.885,95.438,540.678,538.822,0.0
52991.0,STARLINK-4285,PAYLOAD,2024-07-30 04:34:23,15.08837813,0.0001329,53.2151,221.5072,86.7317,273.3828,5.447e-05,5.79e-06,0.0,0 STARLINK-4285,1 52991U 22076F   24212.19055301  .00000579  00000-0  54470-4 0  9993,2 52991  53.2151 221.5072 0001329  86.7317 273.3828 15.08837813114486,6917.887,95.438,540.671,538.833,0.0
52991.0,STARLINK-4285,PAYLOAD,2024-07-30 07:45:10,15.08838139,0.0001318,53.2151,220.9124,86.3933,273.721,5.2004e-05,5.4e-06,0.0,0 STARLINK-4285,1 52991U 22076F   24212.32303293  .00000540  00000-0  52004-4 0  9993,2 52991  53.2151 220.9124 0001318  86.3933 273.7210 15.08838139114037,6917.886,95.438,540.663,538.839,0.0
52991.0,STARLINK-4285,PAYLOAD,2024-07-30 17:17:28,15.08841441,0.0001326,53.2153,219.1282,85.9615,274.1529,7.3532e-05,8.83e-06,0.0,0 STARLINK-4285,1 52991U 22076F   24212.72047068  .00000883  00000-0  73532-4 0  9991,2 52991  53.2153 219.1282 0001326  85.9615 274.1529 15.08841441114099,6917.876,95.437,540.658,538.824,0.0
52991.0,STARLINK-4285,PAYLOAD,2024-07-31 07:35:56,15.08842447,0.0001405,53.2159,216.453,90.3118,269.8035,9.3217e-05,1.196e-05,0.0,0 STARLINK-4285,1 52991U 22076F   24213.31663042  .00001196  00000-0  93217-4 0  9993,2 52991  53.2159 216.4530 0001405  90.3118 269.8035 15.08842447114659,6917.873,95.437,540.71,538.766,0.0
52991.0,STARLINK-4285,PAYLOAD,2024-07-31 17:08:15,15.08844071,0.0001406,53.216,214.6686,88.5557,271.5596,0.00010165,1.33e-05,0.0,0 STARLINK-4285,1 52991U 22076F   24213.71406855  .00001330  00000-0  10165-3 0  9994,2 52991  53.2160 214.6686 0001406  88.5557 271.5596 15.08844071114242,6917.868,95.437,540.706,538.76,0.0
52991.0,STARLINK-4285,PAYLOAD,2024-08-01 04:15:58,15.08832072,0.0001531,53.2172,212.5877,87.011,273.1057,1.8485e-05,6e-08,0.0,0 STARLINK-4285,1 52991U 22076F   24214.17776011  .00000006  00000-0  18485-4 0  9992,2 52991  53.2172 212.5877 0001531  87.0110 273.1057 15.08832072114789,6917.905,95.438,540.829,538.71,0.0
52991.0,STARLINK-4285,PAYLOAD,2024-08-01 09:02:07,15.08831278,0.0001493,53.2164,211.6948,81.3324,278.7837,7.8585e-05,9.63e-06,0.0,0 STARLINK-4285,1 52991U 22076F   24214.37647922  .00000963  00000-0  78585-4 0  9991,2 52991  53.2164 211.6948 0001493  81.3324 278.7837 15.08831278114346,6917.907,95.438,540.805,538.739,0.0
52991.0,STARLINK-4285,PAYLOAD,2024-08-02 05:42:08,15.08843265,0.0001476,53.2159,207.8296,86.74,273.3761,6.9883e-05,8.24e-06,0.0,0 STARLINK-4285,1 52991U 22076F   24215.23759280  .00000824  00000-0  69883-4 0  9995,2 52991  53.2159 207.8296 0001476  86.7400 273.3761 15.08843265114940,6917.87,95.437,540.756,538.714,0.0
52991.0,STARLINK-4285,PAYLOAD,2024-08-02 08:52:54,15.08844129,0.0001358,53.2152,207.2344,86.6703,273.4444,6.9645e-05,8.21e-06,0.0,0 STARLINK-4285,1 52991U 22076F   24215.37007202  .00000821  00000-0  69645-4 0  9993,2 52991  53.2152 207.2344 0001358  86.6703 273.4444 15.08844129114494,6917.868,95.437,540.672,538.793,0.0
52991.0,STARLINK-4285,PAYLOAD,2024-08-02 16:49:49,15.08846969,0.0001448,53.2157,205.7481,86.2149,273.9009,4.5572e-05,4.38e-06,0.0,0 STARLINK-4285,1 52991U 22076F   24215.70127040  .00000438  00000-0  45572-4 0  9990,2 52991  53.2157 205.7481 0001448  86.2149 273.9009 15.08846969114546,6917.859,95.437,540.726,538.722,0.0
52991.0,STARLINK-4285,PAYLOAD,2024-08-03 08:43:41,15.08841685,0.0001433,53.2159,202.7719,97.4632,262.6523,9.3039e-05,1.193e-05,0.0,0 STARLINK-4285,1 52991U 22076F   24216.36367217  .00001193  00000-0  93039-4 0  9995,2 52991  53.2159 202.7719 0001433  97.4632 262.6523 15.08841685115114,6917.875,95.437,540.732,538.749,0.0
52991.0,STARLINK-4285,PAYLOAD,2024-08-03 16:40:36,15.08847159,0.0001432,53.216,201.2856,96.6007,263.5148,0.0001296,1.776e-05,0.0,0 STARLINK-4285,1 52991U 22076F   24216.69486719  .00001776  00000-0  12960-3 0  9990,2 52991  53.2160 201.2856 0001432  96.6007 263.5148 15.08847159114695,6917.859,95.437,540.714,538.733,0.0
52991.0,STARLINK-4285,PAYLOAD,2024-08-04 05:23:42,15.08841488,0.0001506,53.2159,198.908,94.7989,265.3175,2.3234e-05,8.2e-07,0.0,0 STARLINK-4285,1 52991U 22076F   24217.22479374  .00000082  00000-0  23234-4 0  9995,2 52991  53.2159 198.9080 0001506  94.7989 265.3175 15.08841488114772,6917.876,95.437,540.783,538.699,0.0
52991.0,STARLINK-4285,PAYLOAD,2024-08-05 05:14:29,15.0884017,0.0001454,53.2154,194.4448,99.1882,260.9274,4.2907e-05,3.95e-06,0.0,0 STARLINK-4285,1 52991U 22076F   24218.21839236  .00000395  00000-0  42907-4 0  9997,2 52991  53.2154 194.4448 0001454  99.1882 260.9274 15.08840170115396,6917.88,95.438,540.751,538.739,0.0
